{
  "type": "FeatureCollection",
  "name": "B-001_3D_Cadastral_Units",
  "features": [
    {
      "type": "Feature",
      "properties": {
        "building_id": "B-001",
        "building_name": "Maple Crest Apartments",
        "unit_id": "B01-0101",
        "unit_title": "Apartment 101",
        "floor": 1,
        "elevation_z_min": 0.0,
        "elevation_z_max": 3.75,
        "area_m2": 1358.1,
        "volume_m3": 5093.0,
        "owner": "Maple Crest Developers \u2014 PROTOTYPE",
        "classification": "Residential / Apartment"
      },
      "geometry": {
        "type": "Polygon",
        "coordinates": [
          [
            [
              80.20963663574018,
              12.975311604699614
            ],
            [
              80.2103633642598,
              12.975311604699614
            ],
            [
              80.21041291393159,
              12.97527421213566
            ],
            [
              80.21041291393159,
              12.974725787864338
            ],
            [
              80.2103633642598,
              12.974688395300385
            ],
            [
              80.20963663574018,
              12.974688395300385
            ],
            [
              80.2095870860684,
              12.974725787864338
            ],
            [
              80.2095870860684,
              12.97527421213566
            ],
            [
              80.20963663574018,
              12.975311604699614
            ]
          ]
        ]
      }
    },
    {
      "type": "Feature",
      "properties": {
        "building_id": "B-001",
        "building_name": "Maple Crest Apartments",
        "unit_id": "B01-0102",
        "unit_title": "Apartment 102",
        "floor": 1,
        "elevation_z_min": 0.0,
        "elevation_z_max": 3.75,
        "area_m2": 1358.1,
        "volume_m3": 5093.0,
        "owner": "Maple Crest Developers \u2014 PROTOTYPE",
        "classification": "Residential / Apartment"
      },
      "geometry": {
        "type": "Polygon",
        "coordinates": [
          [
            [
              80.20963663574018,
              12.975311604699614
            ],
            [
              80.2103633642598,
              12.975311604699614
            ],
            [
              80.21041291393159,
              12.97527421213566
            ],
            [
              80.21041291393159,
              12.974725787864338
            ],
            [
              80.2103633642598,
              12.974688395300385
            ],
            [
              80.20963663574018,
              12.974688395300385
            ],
            [
              80.2095870860684,
              12.974725787864338
            ],
            [
              80.2095870860684,
              12.97527421213566
            ],
            [
              80.20963663574018,
              12.975311604699614
            ]
          ]
        ]
      }
    },
    {
      "type": "Feature",
      "properties": {
        "building_id": "B-001",
        "building_name": "Maple Crest Apartments",
        "unit_id": "B01-0103",
        "unit_title": "Apartment 103",
        "floor": 1,
        "elevation_z_min": 0.0,
        "elevation_z_max": 3.75,
        "area_m2": 1358.1,
        "volume_m3": 5093.0,
        "owner": "Maple Crest Developers \u2014 PROTOTYPE",
        "classification": "Residential / Apartment"
      },
      "geometry": {
        "type": "Polygon",
        "coordinates": [
          [
            [
              80.20963663574018,
              12.975311604699614
            ],
            [
              80.2103633642598,
              12.975311604699614
            ],
            [
              80.21041291393159,
              12.97527421213566
            ],
            [
              80.21041291393159,
              12.974725787864338
            ],
            [
              80.2103633642598,
              12.974688395300385
            ],
            [
              80.20963663574018,
              12.974688395300385
            ],
            [
              80.2095870860684,
              12.974725787864338
            ],
            [
              80.2095870860684,
              12.97527421213566
            ],
            [
              80.20963663574018,
              12.975311604699614
            ]
          ]
        ]
      }
    },
    {
      "type": "Feature",
      "properties": {
        "building_id": "B-001",
        "building_name": "Maple Crest Apartments",
        "unit_id": "B01-0104",
        "unit_title": "Apartment 104",
        "floor": 1,
        "elevation_z_min": 0.0,
        "elevation_z_max": 3.75,
        "area_m2": 1358.1,
        "volume_m3": 5093.0,
        "owner": "Maple Crest Developers \u2014 PROTOTYPE",
        "classification": "Residential / Apartment"
      },
      "geometry": {
        "type": "Polygon",
        "coordinates": [
          [
            [
              80.20963663574018,
              12.975311604699614
            ],
            [
              80.2103633642598,
              12.975311604699614
            ],
            [
              80.21041291393159,
              12.97527421213566
            ],
            [
              80.21041291393159,
              12.974725787864338
            ],
            [
              80.2103633642598,
              12.974688395300385
            ],
            [
              80.20963663574018,
              12.974688395300385
            ],
            [
              80.2095870860684,
              12.974725787864338
            ],
            [
              80.2095870860684,
              12.97527421213566
            ],
            [
              80.20963663574018,
              12.975311604699614
            ]
          ]
        ]
      }
    },
    {
      "type": "Feature",
      "properties": {
        "building_id": "B-001",
        "building_name": "Maple Crest Apartments",
        "unit_id": "B01-0201",
        "unit_title": "Apartment 201",
        "floor": 2,
        "elevation_z_min": 3.75,
        "elevation_z_max": 7.5,
        "area_m2": 1358.1,
        "volume_m3": 5093.0,
        "owner": "Maple Crest Developers \u2014 PROTOTYPE",
        "classification": "Residential / Apartment"
      },
      "geometry": {
        "type": "Polygon",
        "coordinates": [
          [
            [
              80.20963663574018,
              12.975311604699614
            ],
            [
              80.2103633642598,
              12.975311604699614
            ],
            [
              80.21041291393159,
              12.97527421213566
            ],
            [
              80.21041291393159,
              12.974725787864338
            ],
            [
              80.2103633642598,
              12.974688395300385
            ],
            [
              80.20963663574018,
              12.974688395300385
            ],
            [
              80.2095870860684,
              12.974725787864338
            ],
            [
              80.2095870860684,
              12.97527421213566
            ],
            [
              80.20963663574018,
              12.975311604699614
            ]
          ]
        ]
      }
    },
    {
      "type": "Feature",
      "properties": {
        "building_id": "B-001",
        "building_name": "Maple Crest Apartments",
        "unit_id": "B01-0202",
        "unit_title": "Apartment 202",
        "floor": 2,
        "elevation_z_min": 3.75,
        "elevation_z_max": 7.5,
        "area_m2": 1358.1,
        "volume_m3": 5093.0,
        "owner": "Maple Crest Developers \u2014 PROTOTYPE",
        "classification": "Residential / Apartment"
      },
      "geometry": {
        "type": "Polygon",
        "coordinates": [
          [
            [
              80.20963663574018,
              12.975311604699614
            ],
            [
              80.2103633642598,
              12.975311604699614
            ],
            [
              80.21041291393159,
              12.97527421213566
            ],
            [
              80.21041291393159,
              12.974725787864338
            ],
            [
              80.2103633642598,
              12.974688395300385
            ],
            [
              80.20963663574018,
              12.974688395300385
            ],
            [
              80.2095870860684,
              12.974725787864338
            ],
            [
              80.2095870860684,
              12.97527421213566
            ],
            [
              80.20963663574018,
              12.975311604699614
            ]
          ]
        ]
      }
    },
    {
      "type": "Feature",
      "properties": {
        "building_id": "B-001",
        "building_name": "Maple Crest Apartments",
        "unit_id": "B01-0203",
        "unit_title": "Apartment 203",
        "floor": 2,
        "elevation_z_min": 3.75,
        "elevation_z_max": 7.5,
        "area_m2": 1358.1,
        "volume_m3": 5093.0,
        "owner": "Maple Crest Developers \u2014 PROTOTYPE",
        "classification": "Residential / Apartment"
      },
      "geometry": {
        "type": "Polygon",
        "coordinates": [
          [
            [
              80.20963663574018,
              12.975311604699614
            ],
            [
              80.2103633642598,
              12.975311604699614
            ],
            [
              80.21041291393159,
              12.97527421213566
            ],
            [
              80.21041291393159,
              12.974725787864338
            ],
            [
              80.2103633642598,
              12.974688395300385
            ],
            [
              80.20963663574018,
              12.974688395300385
            ],
            [
              80.2095870860684,
              12.974725787864338
            ],
            [
              80.2095870860684,
              12.97527421213566
            ],
            [
              80.20963663574018,
              12.975311604699614
            ]
          ]
        ]
      }
    },
    {
      "type": "Feature",
      "properties": {
        "building_id": "B-001",
        "building_name": "Maple Crest Apartments",
        "unit_id": "B01-0204",
        "unit_title": "Apartment 204",
        "floor": 2,
        "elevation_z_min": 3.75,
        "elevation_z_max": 7.5,
        "area_m2": 1358.1,
        "volume_m3": 5093.0,
        "owner": "Maple Crest Developers \u2014 PROTOTYPE",
        "classification": "Residential / Apartment"
      },
      "geometry": {
        "type": "Polygon",
        "coordinates": [
          [
            [
              80.20963663574018,
              12.975311604699614
            ],
            [
              80.2103633642598,
              12.975311604699614
            ],
            [
              80.21041291393159,
              12.97527421213566
            ],
            [
              80.21041291393159,
              12.974725787864338
            ],
            [
              80.2103633642598,
              12.974688395300385
            ],
            [
              80.20963663574018,
              12.974688395300385
            ],
            [
              80.2095870860684,
              12.974725787864338
            ],
            [
              80.2095870860684,
              12.97527421213566
            ],
            [
              80.20963663574018,
              12.975311604699614
            ]
          ]
        ]
      }
    },
    {
      "type": "Feature",
      "properties": {
        "building_id": "B-001",
        "building_name": "Maple Crest Apartments",
        "unit_id": "B01-0301",
        "unit_title": "Apartment 301",
        "floor": 3,
        "elevation_z_min": 7.5,
        "elevation_z_max": 11.25,
        "area_m2": 1358.1,
        "volume_m3": 5093.0,
        "owner": "Maple Crest Developers \u2014 PROTOTYPE",
        "classification": "Residential / Apartment"
      },
      "geometry": {
        "type": "Polygon",
        "coordinates": [
          [
            [
              80.20963663574018,
              12.975311604699614
            ],
            [
              80.2103633642598,
              12.975311604699614
            ],
            [
              80.21041291393159,
              12.97527421213566
            ],
            [
              80.21041291393159,
              12.974725787864338
            ],
            [
              80.2103633642598,
              12.974688395300385
            ],
            [
              80.20963663574018,
              12.974688395300385
            ],
            [
              80.2095870860684,
              12.974725787864338
            ],
            [
              80.2095870860684,
              12.97527421213566
            ],
            [
              80.20963663574018,
              12.975311604699614
            ]
          ]
        ]
      }
    },
    {
      "type": "Feature",
      "properties": {
        "building_id": "B-001",
        "building_name": "Maple Crest Apartments",
        "unit_id": "B01-0302",
        "unit_title": "Apartment 302",
        "floor": 3,
        "elevation_z_min": 7.5,
        "elevation_z_max": 11.25,
        "area_m2": 1358.1,
        "volume_m3": 5093.0,
        "owner": "Maple Crest Developers \u2014 PROTOTYPE",
        "classification": "Residential / Apartment"
      },
      "geometry": {
        "type": "Polygon",
        "coordinates": [
          [
            [
              80.20963663574018,
              12.975311604699614
            ],
            [
              80.2103633642598,
              12.975311604699614
            ],
            [
              80.21041291393159,
              12.97527421213566
            ],
            [
              80.21041291393159,
              12.974725787864338
            ],
            [
              80.2103633642598,
              12.974688395300385
            ],
            [
              80.20963663574018,
              12.974688395300385
            ],
            [
              80.2095870860684,
              12.974725787864338
            ],
            [
              80.2095870860684,
              12.97527421213566
            ],
            [
              80.20963663574018,
              12.975311604699614
            ]
          ]
        ]
      }
    },
    {
      "type": "Feature",
      "properties": {
        "building_id": "B-001",
        "building_name": "Maple Crest Apartments",
        "unit_id": "B01-0303",
        "unit_title": "Apartment 303",
        "floor": 3,
        "elevation_z_min": 7.5,
        "elevation_z_max": 11.25,
        "area_m2": 1358.1,
        "volume_m3": 5093.0,
        "owner": "Maple Crest Developers \u2014 PROTOTYPE",
        "classification": "Residential / Apartment"
      },
      "geometry": {
        "type": "Polygon",
        "coordinates": [
          [
            [
              80.20963663574018,
              12.975311604699614
            ],
            [
              80.2103633642598,
              12.975311604699614
            ],
            [
              80.21041291393159,
              12.97527421213566
            ],
            [
              80.21041291393159,
              12.974725787864338
            ],
            [
              80.2103633642598,
              12.974688395300385
            ],
            [
              80.20963663574018,
              12.974688395300385
            ],
            [
              80.2095870860684,
              12.974725787864338
            ],
            [
              80.2095870860684,
              12.97527421213566
            ],
            [
              80.20963663574018,
              12.975311604699614
            ]
          ]
        ]
      }
    },
    {
      "type": "Feature",
      "properties": {
        "building_id": "B-001",
        "building_name": "Maple Crest Apartments",
        "unit_id": "B01-0304",
        "unit_title": "Apartment 304",
        "floor": 3,
        "elevation_z_min": 7.5,
        "elevation_z_max": 11.25,
        "area_m2": 1358.1,
        "volume_m3": 5093.0,
        "owner": "Maple Crest Developers \u2014 PROTOTYPE",
        "classification": "Residential / Apartment"
      },
      "geometry": {
        "type": "Polygon",
        "coordinates": [
          [
            [
              80.20963663574018,
              12.975311604699614
            ],
            [
              80.2103633642598,
              12.975311604699614
            ],
            [
              80.21041291393159,
              12.97527421213566
            ],
            [
              80.21041291393159,
              12.974725787864338
            ],
            [
              80.2103633642598,
              12.974688395300385
            ],
            [
              80.20963663574018,
              12.974688395300385
            ],
            [
              80.2095870860684,
              12.974725787864338
            ],
            [
              80.2095870860684,
              12.97527421213566
            ],
            [
              80.20963663574018,
              12.975311604699614
            ]
          ]
        ]
      }
    },
    {
      "type": "Feature",
      "properties": {
        "building_id": "B-001",
        "building_name": "Maple Crest Apartments",
        "unit_id": "B01-0401",
        "unit_title": "Apartment 401",
        "floor": 4,
        "elevation_z_min": 11.25,
        "elevation_z_max": 15.0,
        "area_m2": 1358.1,
        "volume_m3": 5093.0,
        "owner": "Maple Crest Developers \u2014 PROTOTYPE",
        "classification": "Residential / Apartment"
      },
      "geometry": {
        "type": "Polygon",
        "coordinates": [
          [
            [
              80.20963663574018,
              12.975311604699614
            ],
            [
              80.2103633642598,
              12.975311604699614
            ],
            [
              80.21041291393159,
              12.97527421213566
            ],
            [
              80.21041291393159,
              12.974725787864338
            ],
            [
              80.2103633642598,
              12.974688395300385
            ],
            [
              80.20963663574018,
              12.974688395300385
            ],
            [
              80.2095870860684,
              12.974725787864338
            ],
            [
              80.2095870860684,
              12.97527421213566
            ],
            [
              80.20963663574018,
              12.975311604699614
            ]
          ]
        ]
      }
    },
    {
      "type": "Feature",
      "properties": {
        "building_id": "B-001",
        "building_name": "Maple Crest Apartments",
        "unit_id": "B01-0402",
        "unit_title": "Apartment 402",
        "floor": 4,
        "elevation_z_min": 11.25,
        "elevation_z_max": 15.0,
        "area_m2": 1358.1,
        "volume_m3": 5093.0,
        "owner": "Maple Crest Developers \u2014 PROTOTYPE",
        "classification": "Residential / Apartment"
      },
      "geometry": {
        "type": "Polygon",
        "coordinates": [
          [
            [
              80.20963663574018,
              12.975311604699614
            ],
            [
              80.2103633642598,
              12.975311604699614
            ],
            [
              80.21041291393159,
              12.97527421213566
            ],
            [
              80.21041291393159,
              12.974725787864338
            ],
            [
              80.2103633642598,
              12.974688395300385
            ],
            [
              80.20963663574018,
              12.974688395300385
            ],
            [
              80.2095870860684,
              12.974725787864338
            ],
            [
              80.2095870860684,
              12.97527421213566
            ],
            [
              80.20963663574018,
              12.975311604699614
            ]
          ]
        ]
      }
    },
    {
      "type": "Feature",
      "properties": {
        "building_id": "B-001",
        "building_name": "Maple Crest Apartments",
        "unit_id": "B01-0403",
        "unit_title": "Apartment 403",
        "floor": 4,
        "elevation_z_min": 11.25,
        "elevation_z_max": 15.0,
        "area_m2": 1358.1,
        "volume_m3": 5093.0,
        "owner": "Maple Crest Developers \u2014 PROTOTYPE",
        "classification": "Residential / Apartment"
      },
      "geometry": {
        "type": "Polygon",
        "coordinates": [
          [
            [
              80.20963663574018,
              12.975311604699614
            ],
            [
              80.2103633642598,
              12.975311604699614
            ],
            [
              80.21041291393159,
              12.97527421213566
            ],
            [
              80.21041291393159,
              12.974725787864338
            ],
            [
              80.2103633642598,
              12.974688395300385
            ],
            [
              80.20963663574018,
              12.974688395300385
            ],
            [
              80.2095870860684,
              12.974725787864338
            ],
            [
              80.2095870860684,
              12.97527421213566
            ],
            [
              80.20963663574018,
              12.975311604699614
            ]
          ]
        ]
      }
    },
    {
      "type": "Feature",
      "properties": {
        "building_id": "B-001",
        "building_name": "Maple Crest Apartments",
        "unit_id": "B01-0404",
        "unit_title": "Apartment 404",
        "floor": 4,
        "elevation_z_min": 11.25,
        "elevation_z_max": 15.0,
        "area_m2": 1358.1,
        "volume_m3": 5093.0,
        "owner": "Maple Crest Developers \u2014 PROTOTYPE",
        "classification": "Residential / Apartment"
      },
      "geometry": {
        "type": "Polygon",
        "coordinates": [
          [
            [
              80.20963663574018,
              12.975311604699614
            ],
            [
              80.2103633642598,
              12.975311604699614
            ],
            [
              80.21041291393159,
              12.97527421213566
            ],
            [
              80.21041291393159,
              12.974725787864338
            ],
            [
              80.2103633642598,
              12.974688395300385
            ],
            [
              80.20963663574018,
              12.974688395300385
            ],
            [
              80.2095870860684,
              12.974725787864338
            ],
            [
              80.2095870860684,
              12.97527421213566
            ],
            [
              80.20963663574018,
              12.975311604699614
            ]
          ]
        ]
      }
    }
  ]
}